*******************************************************************************
JPL/HORIZONS               454 Mathesis (A900 FB)          2020-Jun-22 09:08:21
Rec #:     454 (+COV) Soln.date: 2020-May-20_01:05:53   # obs: 2803 (1900-2020)
 
IAU76/J2000 helio. ecliptic osc. elements (au, days, deg., period=Julian yrs):
 
  EPOCH=  2455678.5 ! 2011-Apr-27.00 (TDB)         Residual RMS= .35606
   EC= .1115450411871517   QR= 2.334662814593027   TP= 2455621.5226081717
   OM= 32.41821942495122   W=  177.5097680920046   IN= 6.296772139634944
   A= 2.627778472543615    MA= 13.18328113317649   ADIST= 2.920894130494203
   PER= 4.25982            N= .2313774             ANGMOM= .02771131
   DAN= 2.92055            DDN= 2.33488            L= 209.942992
   B= .2730389             MOID= 1.32947004        TP= 2011-Mar-01.0226081717
 
Asteroid physical parameters (km, seconds, rotational period in hours):
   GM= n.a.                RAD= 40.8715            ROTPER= 8.378
   H= 9.3                  G= .150                 B-V= .662
                           ALBEDO= .055            STYP= CB
 
ASTEROID comments: 
1: soln ref.= JPL#102, OCC=0
2: source=ORB
*******************************************************************************
 
 
*******************************************************************************
Ephemeris / WWW_USER Mon Jun 22 09:08:21 2020 Pasadena, USA      / Horizons
*******************************************************************************
Target body name: 454 Mathesis (A900 FB)          {source: JPL#102}
Center body name: Solar System Barycenter (0)     {source: DE431}
Center-site name: BODY CENTER
*******************************************************************************
Start time      : A.D. 1969-Jun-28 00:00:00.0000 TDB
Stop  time      : A.D. 2071-May-04 00:00:00.0000 TDB
Step-size       : 7200 minutes
*******************************************************************************
Center geodetic : 0.00000000,0.00000000,0.0000000 {E-lon(deg),Lat(deg),Alt(km)}
Center cylindric: 0.00000000,0.00000000,0.0000000 {E-lon(deg),Dxy(km),Dz(km)}
Center radii    : (undefined)                                                  
Small perturbers: Yes                             {source: SB431-N16}
Output units    : AU-D
Output type     : GEOMETRIC cartesian states
Output format   : 2 (position and velocity)
Reference frame : Ecliptic of J2000.0
*******************************************************************************
Initial IAU76/J2000 heliocentric ecliptic osculating elements (au, days, deg.):
  EPOCH=  2455678.5 ! 2011-Apr-27.00 (TDB)         Residual RMS= .35606        
   EC= .1115450411871517   QR= 2.334662814593027   TP= 2455621.5226081717      
   OM= 32.41821942495122   W=  177.5097680920046   IN= 6.296772139634944       
  Equivalent ICRF heliocentric equatorial cartesian coordinates (au, au/d):
   X=-1.616251866063770E+00  Y=-1.532193443016681E+00  Z=-7.323758320523750E-01
  VX= 8.300047222755770E-03 VY=-7.135894311368854E-03 VZ=-4.474321982219495E-03
Asteroid physical parameters (km, seconds, rotational period in hours):        
   GM= n.a.                RAD= 40.8715            ROTPER= 8.378               
   H= 9.3                  G= .150                 B-V= .662                   
                           ALBEDO= .055            STYP= CB                    
*******************************************************************************
            JDTDB,            Calendar Date (TDB),        delta-T,                      X,                      Y,                      Z,                     VX,                     VY,                     VZ,
******************************************************************************************************************************************************************************************************************
$$SOE
2473720.500000000, A.D. 2060-Sep-18 00:00:00.0000,      69.182449,  9.752134410878037E-01,  2.653744976724654E+00,  1.925017215494390E-01, -9.391947616381645E-03,  2.590832181165516E-03,  7.877707734579485E-04,
2473725.500000000, A.D. 2060-Sep-23 00:00:00.0000,      69.182414,  9.280986201814476E-01,  2.666269539822022E+00,  1.964092642865652E-01, -9.453513918479397E-03,  2.418743670071872E-03,  7.751958117518104E-04,
2473730.500000000, A.D. 2060-Sep-28 00:00:00.0000,      69.182390,  8.806830018401427E-01,  2.677929945789935E+00,  2.002531752268314E-01, -9.512260250193435E-03,  2.245174605315490E-03,  7.623181881627177E-04,
2473735.500000000, A.D. 2060-Oct-03 00:00:00.0000,      69.182378,  8.329807812182817E-01,  2.688718871696751E+00,  2.040319431182022E-01, -9.568148450906219E-03,  2.070157062136365E-03,  7.491387368843679E-04,
2473740.500000000, A.D. 2060-Oct-08 00:00:00.0000,      69.182376,  7.850063448583217E-01,  2.698629157121633E+00,  2.077440610510903E-01, -9.621140127942537E-03,  1.893723974856509E-03,  7.356583612787747E-04,
2473745.500000000, A.D. 2060-Oct-13 00:00:00.0000,      69.182386,  7.367742718210198E-01,  2.707653808529452E+00,  2.113880268130116E-01, -9.671196668794792E-03,  1.715909168858077E-03,  7.218780374345864E-04,
2473750.500000000, A.D. 2060-Oct-18 00:00:00.0000,      69.182409,  6.882993347516182E-01,  2.715786003808278E+00,  2.149623432615195E-01, -9.718279254494516E-03,  1.536747393637893E-03,  7.077988179207391E-04,
2473755.500000000, A.D. 2060-Oct-23 00:00:00.0000,      69.182445,  6.395965008766320E-01,  2.723019096974879E+00,  2.184655187163866E-01, -9.762348873956581E-03,  1.356274356956760E-03,  6.934218357238671E-04,
2473760.500000000, A.D. 2060-Oct-28 00:00:00.0000,      69.182493,  5.906809329270448E-01,  2.729346623053179E+00,  2.218960673717950E-01, -9.803366339045775E-03,  1.174526759742444E-03,  6.787483082998949E-04,
2473765.500000000, A.D. 2060-Nov-02 00:00:00.0000,      69.182552,  5.415679899841039E-01,  2.734762303126965E+00,  2.252525097288303E-01, -9.841292300601686E-03,  9.915423307211811E-04,  6.637795416297045E-04,
2473770.500000000, A.D. 2060-Nov-07 00:00:00.0000,      69.182621,  4.922732282403250E-01,  2.739260049564377E+00,  2.285333730483550E-01, -9.876087266477459E-03,  8.073598606650935E-04,  6.485169343504299E-04,
2473775.500000000, A.D. 2060-Nov-12 00:00:00.0000,      69.182699,  4.428124016649895E-01,  2.742833971415797E+00,  2.317371918251117E-01, -9.907711621557201E-03,  6.220192377110414E-04,  6.329619821228064E-04,
2473780.500000000, A.D. 2060-Nov-17 00:00:00.0000,      69.182789,  3.932014625666110E-01,  2.745478379991547E+00,  2.348625082841280E-01, -9.936125648862506E-03,  4.355614838058410E-04,  6.171162821604452E-04,
2473785.500000000, A.D. 2060-Nov-22 00:00:00.0000,      69.182890,  3.434565620471575E-01,  2.747187794622463E+00,  2.379078728999236E-01, -9.961289551828532E-03,  2.480287912937947E-04,  6.009815378152687E-04,
2473790.500000000, A.D. 2060-Nov-27 00:00:00.0000,      69.182999,  2.935940503409722E-01,  2.747956948603087E+00,  2.408718449387971E-01, -9.983163478198534E-03,  5.946455938733740E-05,  5.845595632305831E-04,
2473795.500000000, A.D. 2060-Dec-02 00:00:00.0000,      69.183115,  2.436304770298232E-01,  2.747780795317164E+00,  2.437529930246118E-01, -1.000170754568460E-02, -1.300865693612418E-04,  5.678522880876615E-04,
2473800.500000000, A.D. 2060-Dec-07 00:00:00.0000,      69.183237,  1.935825911251872E-01,  2.746654514545601E+00,  2.465498957285488E-01, -1.001688186941632E-02, -3.205786725562695E-04,  5.508617624462580E-04,
2473805.500000000, A.D. 2060-Dec-12 00:00:00.0000,      69.183364,  1.434673410087406E-01,  2.744573518956887E+00,  2.492611421832723E-01, -1.002864659122109E-02, -5.119645114906106E-04,  5.335901616665399E-04,
2473810.500000000, A.D. 2060-Dec-17 00:00:00.0000,      69.183497,  9.330187422169930E-02,  2.741533460779571E+00,  2.518853327218825E-01, -1.003696191082078E-02, -7.041954948055037E-04,  5.160397913989635E-04,
2473815.500000000, A.D. 2060-Dec-22 00:00:00.0000,      69.183636,  4.310353709313842E-02,  2.737530238655950E+00,  2.544210795419644E-01, -1.004178811906543E-02, -8.972216423600961E-04,  4.982130926340836E-04,
2473820.500000000, A.D. 2060-Dec-27 00:00:00.0000,      69.183778, -7.110125803219204E-03,  2.732560004675776E+00,  2.568670073950426E-01, -1.004308563333290E-02, -1.090991549354787E-03,  4.801126468148773E-04,
2473825.500000000, A.D. 2061-Jan-01 00:00:00.0000,      69.183920, -5.732137237488253E-02,  2.726619171588685E+00,  2.592217543017775E-01, -1.004081503521548E-02, -1.285452350724730E-03,  4.617411810246276E-04,
2473830.500000000, A.D. 2061-Jan-06 00:00:00.0000,      69.184062, -1.075122639308411E-01,  2.719704420193986E+00,  2.614839722933350E-01, -1.003493711059614E-02, -1.480549685795963E-03,  4.431015732727018E-04,
2473835.500000000, A.D. 2061-Jan-11 00:00:00.0000,      69.184203, -1.576646663083398E-01,  2.711812706906558E+00,  2.636523281794885E-01, -1.002541289219538E-02, -1.676227663180967E-03,  4.241968579071512E-04,
2473840.500000000, A.D. 2061-Jan-16 00:00:00.0000,      69.184343, -2.077602512187336E-01,  2.702941271497810E+00,  2.657255043441699E-01, -1.001220370466840E-02, -1.872428825834473E-03,  4.050302311879445E-04,
2473845.500000000, A.D. 2061-Jan-21 00:00:00.0000,      69.184483, -2.577804978252269E-01,  2.693087645011366E+00,  2.677021995693654E-01, -9.995271212236414E-03, -2.069094116069288E-03,  3.856050570545953E-04,
2473850.500000000, A.D. 2061-Jan-26 00:00:00.0000,      69.184618, -3.077066945643929E-01,  2.682249657853968E+00,  2.695811298883006E-01, -9.974577468469081E-03, -2.266162840528993E-03,  3.659248730579949E-04,
2473855.500000000, A.D. 2061-Jan-31 00:00:00.0000,      69.184748, -3.575199412210559E-01,  2.670425448059440E+00,  2.713610294683944E-01, -9.950084967877238E-03, -2.463572636248813E-03,  3.459933963147771E-04,
